[{"OBJECT_NAME":"ONEWEB-0411","OBJECT_ID":"2022-012B","EPOCH":"2026-05-26T06:01:36.081984","MEAN_MOTION":13.10370582,"ECCENTRICITY":0.0001271,"INCLINATION":87.8855,"RA_OF_ASC_NODE":40.6322,"ARG_OF_PERICENTER":84.3397,"MEAN_ANOMALY":275.7875,"EPHEMERIS_TYPE":0,"CLASSIFICATION_TYPE":"U","NORAD_CAT_ID":51623,"ELEMENT_SET_NO":999,"REV_AT_EPOCH":20641,"BSTAR":0.00025742,"MEAN_MOTION_DOT":1.03e-06,"MEAN_MOTION_DDOT":0.0},{"OBJECT_NAME":"ONEWEB-0415","OBJECT_ID":"2022-012C","EPOCH":"2026-05-26T05:56:49.921728","MEAN_MOTION":13.10370652,"ECCENTRICITY":0.0001609,"INCLINATION":87.8849,"RA_OF_ASC_NODE":40.6329,"ARG_OF_PERICENTER":84.7831,"MEAN_ANOMALY":275.348,"EPHEMERIS_TYPE":0,"CLASSIFICATION_TYPE":"U","NORAD_CAT_ID":51624,"ELEMENT_SET_NO":999,"REV_AT_EPOCH":20641,"BSTAR":0.00072698,"MEAN_MOTION_DOT":2.66e-06,"MEAN_MOTION_DDOT":0.0},{"OBJECT_NAME":"ONEWEB-0416","OBJECT_ID":"2022-012D","EPOCH":"2026-05-26T06:13:32.275776","MEAN_MOTION":13.10370253,"ECCENTRICITY":0.000168,"INCLINATION":87.8846,"RA_OF_ASC_NODE":40.6496,"ARG_OF_PERICENTER":93.586,"MEAN_ANOMALY":266.5459,"EPHEMERIS_TYPE":0,"CLASSIFICATION_TYPE":"U","NORAD_CAT_ID":51625,"ELEMENT_SET_NO":999,"REV_AT_EPOCH":20645,"BSTAR":-0.0012622,"MEAN_MOTION_DOT":-4.28e-06,"MEAN_MOTION_DDOT":0.0},{"OBJECT_NAME":"ONEWEB-0422","OBJECT_ID":"2022-012E","EPOCH":"2026-05-26T03:07:10.504416","MEAN_MOTION":13.17649443,"ECCENTRICITY":0.0001625,"INCLINATION":87.9159,"RA_OF_ASC_NODE":10.2433,"ARG_OF_PERICENTER":63.2188,"MEAN_ANOMALY":296.911,"EPHEMERIS_TYPE":0,"CLASSIFICATION_TYPE":"U","NORAD_CAT_ID":51626,"ELEMENT_SET_NO":999,"REV_AT_EPOCH":21090,"BSTAR":0.00013787,"MEAN_MOTION_DOT":6.6e-07,"MEAN_MOTION_DDOT":0.0},{"OBJECT_NAME":"ONEWEB-0423","OBJECT_ID":"2022-012F","EPOCH":"2026-05-26T02:57:27.688032","MEAN_MOTION":13.17648727,"ECCENTRICITY":0.0001938,"INCLINATION":87.9156,"RA_OF_ASC_NODE":10.2513,"ARG_OF_PERICENTER":84.02,"MEAN_ANOMALY":276.1153,"EPHEMERIS_TYPE":0,"CLASSIFICATION_TYPE":"U","NORAD_CAT_ID":51627,"ELEMENT_SET_NO":999,"REV_AT_EPOCH":21079,"BSTAR":0.00022569000000000002,"MEAN_MOTION_DOT":1.01e-06,"MEAN_MOTION_DDOT":0.0},{"OBJECT_NAME":"ONEWEB-0425","OBJECT_ID":"2022-012G","EPOCH":"2026-05-26T04:37:56.699904","MEAN_MOTION":13.10373189,"ECCENTRICITY":0.0002126,"INCLINATION":87.8848,"RA_OF_ASC_NODE":40.6453,"ARG_OF_PERICENTER":83.0368,"MEAN_ANOMALY":277.1001,"EPHEMERIS_TYPE":0,"CLASSIFICATION_TYPE":"U","NORAD_CAT_ID":51628,"ELEMENT_SET_NO":999,"REV_AT_EPOCH":20644,"BSTAR":-0.0015061,"MEAN_MOTION_DOT":-5.13e-06,"MEAN_MOTION_DDOT":0.0},{"OBJECT_NAME":"ONEWEB-0428","OBJECT_ID":"2022-012H","EPOCH":"2026-05-26T05:59:12.974208","MEAN_MOTION":13.10370908,"ECCENTRICITY":0.0001818,"INCLINATION":87.8848,"RA_OF_ASC_NODE":40.6417,"ARG_OF_PERICENTER":78.4759,"MEAN_ANOMALY":281.6572,"EPHEMERIS_TYPE":0,"CLASSIFICATION_TYPE":"U","NORAD_CAT_ID":51629,"ELEMENT_SET_NO":999,"REV_AT_EPOCH":20641,"BSTAR":0.00054537,"MEAN_MOTION_DOT":2.03e-06,"MEAN_MOTION_DDOT":0.0},{"OBJECT_NAME":"ONEWEB-0431","OBJECT_ID":"2022-012J","EPOCH":"2026-05-26T05:15:59.215104","MEAN_MOTION":13.10377355,"ECCENTRICITY":0.0001193,"INCLINATION":87.8859,"RA_OF_ASC_NODE":40.6397,"ARG_OF_PERICENTER":77.1146,"MEAN_ANOMALY":283.0115,"EPHEMERIS_TYPE":0,"CLASSIFICATION_TYPE":"U","NORAD_CAT_ID":51630,"ELEMENT_SET_NO":999,"REV_AT_EPOCH":20646,"BSTAR":0.00090888,"MEAN_MOTION_DOT":3.3e-06,"MEAN_MOTION_DDOT":0.0},{"OBJECT_NAME":"ONEWEB-0434","OBJECT_ID":"2022-012K","EPOCH":"2026-05-26T04:42:54.554400","MEAN_MOTION":13.10374185,"ECCENTRICITY":0.0002451,"INCLINATION":87.8855,"RA_OF_ASC_NODE":40.6686,"ARG_OF_PERICENTER":83.9806,"MEAN_ANOMALY":276.16,"EPHEMERIS_TYPE":0,"CLASSIFICATION_TYPE":"U","NORAD_CAT_ID":51631,"ELEMENT_SET_NO":999,"REV_AT_EPOCH":20644,"BSTAR":-0.0016597,"MEAN_MOTION_DOT":-5.67e-06,"MEAN_MOTION_DDOT":0.0},{"OBJECT_NAME":"ONEWEB-0435","OBJECT_ID":"2022-012L","EPOCH":"2026-05-26T04:54:39.401280","MEAN_MOTION":13.10377007,"ECCENTRICITY":0.0001712,"INCLINATION":87.8848,"RA_OF_ASC_NODE":40.655,"ARG_OF_PERICENTER":72.8828,"MEAN_ANOMALY":287.2487,"EPHEMERIS_TYPE":0,"CLASSIFICATION_TYPE":"U","NORAD_CAT_ID":51632,"ELEMENT_SET_NO":999,"REV_AT_EPOCH":20643,"BSTAR":-0.00099046,"MEAN_MOTION_DOT":-3.33e-06,"MEAN_MOTION_DDOT":0.0},{"OBJECT_NAME":"ONEWEB-0436","OBJECT_ID":"2022-012M","EPOCH":"2026-05-26T02:45:17.885376","MEAN_MOTION":13.17649762,"ECCENTRICITY":0.0001675,"INCLINATION":87.9159,"RA_OF_ASC_NODE":10.2337,"ARG_OF_PERICENTER":78.9703,"MEAN_ANOMALY":281.1617,"EPHEMERIS_TYPE":0,"CLASSIFICATION_TYPE":"U","NORAD_CAT_ID":51633,"ELEMENT_SET_NO":999,"REV_AT_EPOCH":21077,"BSTAR":0.00015626000000000003,"MEAN_MOTION_DOT":7.4e-07,"MEAN_MOTION_DDOT":0.0},{"OBJECT_NAME":"ONEWEB-0438","OBJECT_ID":"2022-012N","EPOCH":"2026-05-26T06:20:42.867456","MEAN_MOTION":13.1037229,"ECCENTRICITY":0.0001967,"INCLINATION":87.8848,"RA_OF_ASC_NODE":40.6453,"ARG_OF_PERICENTER":82.574,"MEAN_ANOMALY":277.5611,"EPHEMERIS_TYPE":0,"CLASSIFICATION_TYPE":"U","NORAD_CAT_ID":51634,"ELEMENT_SET_NO":999,"REV_AT_EPOCH":20647,"BSTAR":-0.0013673,"MEAN_MOTION_DOT":-4.65e-06,"MEAN_MOTION_DDOT":0.0},{"OBJECT_NAME":"ONEWEB-0439","OBJECT_ID":"2022-012P","EPOCH":"2026-05-26T04:35:32.193312","MEAN_MOTION":13.10372932,"ECCENTRICITY":0.0001872,"INCLINATION":87.8849,"RA_OF_ASC_NODE":40.6474,"ARG_OF_PERICENTER":77.2502,"MEAN_ANOMALY":282.8835,"EPHEMERIS_TYPE":0,"CLASSIFICATION_TYPE":"U","NORAD_CAT_ID":51635,"ELEMENT_SET_NO":999,"REV_AT_EPOCH":20644,"BSTAR":-0.0016133,"MEAN_MOTION_DOT":-5.5e-06,"MEAN_MOTION_DDOT":0.0},{"OBJECT_NAME":"ONEWEB-0442","OBJECT_ID":"2022-012Q","EPOCH":"2026-05-26T04:23:41.971488","MEAN_MOTION":13.17648072,"ECCENTRICITY":0.000232,"INCLINATION":87.9155,"RA_OF_ASC_NODE":10.2543,"ARG_OF_PERICENTER":92.9664,"MEAN_ANOMALY":267.1733,"EPHEMERIS_TYPE":0,"CLASSIFICATION_TYPE":"U","NORAD_CAT_ID":51636,"ELEMENT_SET_NO":999,"REV_AT_EPOCH":21077,"BSTAR":-0.00017875,"MEAN_MOTION_DOT":-5.7e-07,"MEAN_MOTION_DDOT":0.0},{"OBJECT_NAME":"ONEWEB-0443","OBJECT_ID":"2022-012R","EPOCH":"2026-05-26T03:02:17.448576","MEAN_MOTION":13.17650396,"ECCENTRICITY":0.0002064,"INCLINATION":87.9151,"RA_OF_ASC_NODE":10.2669,"ARG_OF_PERICENTER":77.246,"MEAN_ANOMALY":282.8902,"EPHEMERIS_TYPE":0,"CLASSIFICATION_TYPE":"U","NORAD_CAT_ID":51637,"ELEMENT_SET_NO":999,"REV_AT_EPOCH":21081,"BSTAR":-0.00025629,"MEAN_MOTION_DOT":-8.7e-07,"MEAN_MOTION_DDOT":0.0},{"OBJECT_NAME":"ONEWEB-0444","OBJECT_ID":"2022-012S","EPOCH":"2026-05-26T06:11:09.527424","MEAN_MOTION":13.10370134,"ECCENTRICITY":0.0001963,"INCLINATION":87.8846,"RA_OF_ASC_NODE":40.6332,"ARG_OF_PERICENTER":76.8247,"MEAN_ANOMALY":283.3099,"EPHEMERIS_TYPE":0,"CLASSIFICATION_TYPE":"U","NORAD_CAT_ID":51638,"ELEMENT_SET_NO":999,"REV_AT_EPOCH":20646,"BSTAR":-0.00070903,"MEAN_MOTION_DOT":-2.35e-06,"MEAN_MOTION_DDOT":0.0},{"OBJECT_NAME":"ONEWEB-0445","OBJECT_ID":"2022-012T","EPOCH":"2026-05-26T04:52:15.915072","MEAN_MOTION":13.1037499,"ECCENTRICITY":0.0001651,"INCLINATION":87.8862,"RA_OF_ASC_NODE":40.6302,"ARG_OF_PERICENTER":84.7509,"MEAN_ANOMALY":275.3807,"EPHEMERIS_TYPE":0,"CLASSIFICATION_TYPE":"U","NORAD_CAT_ID":51639,"ELEMENT_SET_NO":999,"REV_AT_EPOCH":20646,"BSTAR":-0.0015189000000000001,"MEAN_MOTION_DOT":-5.18e-06,"MEAN_MOTION_DDOT":0.0},{"OBJECT_NAME":"ONEWEB-0446","OBJECT_ID":"2022-012U","EPOCH":"2026-05-26T04:18:48.914784","MEAN_MOTION":13.10370665,"ECCENTRICITY":0.0001737,"INCLINATION":87.8848,"RA_OF_ASC_NODE":40.6653,"ARG_OF_PERICENTER":84.2292,"MEAN_ANOMALY":275.9034,"EPHEMERIS_TYPE":0,"CLASSIFICATION_TYPE":"U","NORAD_CAT_ID":51640,"ELEMENT_SET_NO":999,"REV_AT_EPOCH":20644,"BSTAR":-0.00046378,"MEAN_MOTION_DOT":-1.49e-06,"MEAN_MOTION_DDOT":0.0},{"OBJECT_NAME":"ONEWEB-0448","OBJECT_ID":"2022-012V","EPOCH":"2026-05-26T06:15:55.996992","MEAN_MOTION":13.10370202,"ECCENTRICITY":0.0001864,"INCLINATION":87.8846,"RA_OF_ASC_NODE":40.6461,"ARG_OF_PERICENTER":77.3562,"MEAN_ANOMALY":282.7774,"EPHEMERIS_TYPE":0,"CLASSIFICATION_TYPE":"U","NORAD_CAT_ID":51641,"ELEMENT_SET_NO":999,"REV_AT_EPOCH":20642,"BSTAR":-0.0010511,"MEAN_MOTION_DOT":-3.54e-06,"MEAN_MOTION_DDOT":0.0},{"OBJECT_NAME":"ONEWEB-0449","OBJECT_ID":"2022-012W","EPOCH":"2026-05-26T06:23:06.316512","MEAN_MOTION":13.10372285,"ECCENTRICITY":0.0002251,"INCLINATION":87.8852,"RA_OF_ASC_NODE":40.6298,"ARG_OF_PERICENTER":83.1415,"MEAN_ANOMALY":276.9968,"EPHEMERIS_TYPE":0,"CLASSIFICATION_TYPE":"U","NORAD_CAT_ID":51642,"ELEMENT_SET_NO":999,"REV_AT_EPOCH":20643,"BSTAR":-0.0014628,"MEAN_MOTION_DOT":-4.98e-06,"MEAN_MOTION_DDOT":0.0},{"OBJECT_NAME":"ONEWEB-0451","OBJECT_ID":"2022-012X","EPOCH":"2026-05-26T02:40:27.080256","MEAN_MOTION":13.17649036,"ECCENTRICITY":0.0002081,"INCLINATION":87.9163,"RA_OF_ASC_NODE":10.2312,"ARG_OF_PERICENTER":85.86,"MEAN_ANOMALY":274.277,"EPHEMERIS_TYPE":0,"CLASSIFICATION_TYPE":"U","NORAD_CAT_ID":51643,"ELEMENT_SET_NO":999,"REV_AT_EPOCH":21075,"BSTAR":0.00016154,"MEAN_MOTION_DOT":7.6e-07,"MEAN_MOTION_DDOT":0.0},{"OBJECT_NAME":"ONEWEB-0452","OBJECT_ID":"2022-012Y","EPOCH":"2026-05-26T02:38:00.734208","MEAN_MOTION":13.1764959,"ECCENTRICITY":0.0002119,"INCLINATION":87.9154,"RA_OF_ASC_NODE":10.2705,"ARG_OF_PERICENTER":80.1348,"MEAN_ANOMALY":280.0023,"EPHEMERIS_TYPE":0,"CLASSIFICATION_TYPE":"U","NORAD_CAT_ID":51644,"ELEMENT_SET_NO":999,"REV_AT_EPOCH":21076,"BSTAR":0.00015937000000000001,"MEAN_MOTION_DOT":7.5e-07,"MEAN_MOTION_DDOT":0.0},{"OBJECT_NAME":"ONEWEB-0456","OBJECT_ID":"2022-012AA","EPOCH":"2026-05-26T04:47:30.647328","MEAN_MOTION":13.10379494,"ECCENTRICITY":0.0001739,"INCLINATION":87.8862,"RA_OF_ASC_NODE":40.6285,"ARG_OF_PERICENTER":73.4903,"MEAN_ANOMALY":286.6415,"EPHEMERIS_TYPE":0,"CLASSIFICATION_TYPE":"U","NORAD_CAT_ID":51646,"ELEMENT_SET_NO":999,"REV_AT_EPOCH":20646,"BSTAR":-0.0015032000000000001,"MEAN_MOTION_DOT":-5.12e-06,"MEAN_MOTION_DDOT":0.0}]